#aV2010  9 21  0  0   .00000000      96 DD+AD WGS84 FIT  NGA
## 1602 172800.00000000   900.00000000 55460  .0000000000000
+   32     1  2  3  4  5  6  7  8  9 10 11 12 13 14 15 16 17
+         18 19 20 21 22 23 24 25 26 27 28 29 30 31 32  0  0
+          0  0  0  0  0  0  0  0  0  0  0  0  0  0  0  0  0
+          0  0  0  0  0  0  0  0  0  0  0  0  0  0  0  0  0
+          0  0  0  0  0  0  0  0  0  0  0  0  0  0  0  0  0
++         0  0  0  0  0  0  0  0  0  0  0  0  0  0  0  0  0
++         0  0  0  0  0  0  0  0  0  0  0  0  0  0  0  0  0
++         0  0  0  0  0  0  0  0  0  0  0  0  0  0  0  0  0
++         0  0  0  0  0  0  0  0  0  0  0  0  0  0  0  0  0
++         0  0  0  0  0  0  0  0  0  0  0  0  0  0  0  0  0
%c cc cc ccc ccc cccc cccc cccc cccc ccccc ccccc ccccc ccccc
%c cc cc ccc ccc cccc cccc cccc cccc ccccc ccccc ccccc ccccc
%f  0.0000000  0.000000000  0.00000000000  0.000000000000000
%f  0.0000000  0.000000000  0.00000000000  0.000000000000000
%i    0    0    0    0      0      0      0      0         0
%i    0    0    0    0      0      0      0      0         0
/*      NGA, ST. LOUIS,MO.                                  
/*   EPHEMERIS COMPUTED FROM  3 DAYS OF DATA                
/* CCCCCCCCCCCCCCCCCCCCCCCCCCCCCCCCCCCCCCCCCCCCCCCCCCCCCCCCC
/* CCCCCCCCCCCCCCCCCCCCCCCCCCCCCCCCCCCCCCCCCCCCCCCCCCCCCCCCC
*  2010  9 21 17 15   .00000000                                                 
P  1  25020.398309   5261.225433  -7545.751727   -164.778815                    
V  1  -9389.726742   2366.642486 -29833.269903      -.038632                    
P  2 -18014.477601   3728.928090 -18993.793743    290.124630                    
V  2  10321.035096 -22122.144663 -14598.505003       .027246                    
P  3  18289.369758    750.212657  18962.281728    611.393385                    
V  3  13633.017286  20928.782547 -13362.376531       .050439                    
P  4 -13232.968562  -8594.608406 -21541.376049    175.306348                    
V  4  13886.208208 -23174.271510   1079.789095       .091805                    
P  5 -25910.811275   3451.793185   4979.357187    -39.914027                    
V  5  -6316.097354  -2815.117487 -30756.776927      -.054840                    
P  6  19264.745808   6201.859007  17452.513488    484.926985                    
V  6  10129.531284  19466.472351 -18100.478301      -.148837                    
P  7   3257.723866 -22857.573325  12945.091561     -1.768672                    
V  7  10203.938312 -13138.597414 -25943.913193       .001209                    
P  8  -5694.563873 -15445.347064  20697.662313      6.728106                    
V  8  15700.992803 -21187.378738 -12020.040370       .000874                    
P  9 -15140.765834  21205.634315   4554.214315     31.847163                    
V  9   1199.925813  -6718.354289  31534.077198       .022998                    
P 10 -24371.151699  -6906.989326  -8749.158523    -53.006090                    
V 10  10827.710310  -2234.532602 -28670.615831      -.011123                    
P 11   9296.073432 -24526.129773   2398.217569    -91.176907                    
V 11   4160.852539   4828.468279  30091.198246      -.027710                    
P 12 -15610.382518  11887.770053 -17793.358738    -70.785134                    
V 12 -22664.744490  -1918.570915  18712.415247       .036675                    
P 13  -3653.073351 -24027.977606 -10788.018364    296.866452                    
V 13   7238.668900  11473.043511 -28402.441378      -.009614                    
P 14  15649.911987  20210.610777  -7326.855376     90.815548                    
V 14   2616.862661   9267.603031  30376.677914       .036337                    
P 15 -11424.905046  10677.427089  21478.099460   -206.059769                    
V 15 -14297.905777 -23222.258598   4069.764405       .051877                    
P 16  26660.730030   1451.914337   -785.962879   -110.552069                    
V 16  -1100.057363   2164.064580 -31817.378645      -.034522                    
P 17 -14988.358549 -21637.890727  -4236.523438    171.601250                    
V 17   -303.287688  -6057.484562  31007.489611       .014252                    
P 18   5160.580267  15715.075592  21129.473048     94.393258                    
V 18 -26201.282325   -142.330132   6217.379752       .021980                    
P 19  11828.000726 -10247.534682  21435.499857    -67.786046                    
V 19  12119.887766  24403.728128   5297.581239      -.031899                    
P 20  14740.981430 -13433.387324 -17645.120977     50.899967                    
V 20  22301.806999   1419.156683  17735.923310      -.004034                    
P 21    -11.469994  21795.270741  15098.573437    -89.768970                    
V 21 -12231.775587  14685.410621 -22349.731976      -.027034                    
P 22  17504.944747  12343.577504  15939.325597    162.570036                    
V 22 -20031.727819   1751.388586  20773.019689      -.007017                    
P 23   3950.715593 -18756.083099 -18245.784325    352.712417                    
V 23  12749.892924  19522.844828 -17645.416827      -.018872                    
P 24  19260.672296  -7890.627899  16439.918031    323.591378                    
V 24  -9606.362293  18645.262274  20542.747378       .033449                    
P 25  -3568.477441  15120.773616 -21566.787749    -42.246210                    
V 25 -27333.226347   -110.321484   4435.871195      -.014163                    
P 26 -15744.933727  -1088.778768  20881.716357    -15.153183                    
V 26 -11592.194487 -25126.084090  -9385.291859      -.071989                    
P 27 -17341.065122  16871.076619  11384.110310    191.118907                    
V 27   4516.412059 -12839.762603  27759.962740       .035653                    
P 28 -14679.632916 -13198.305003  18390.157316     -2.697308                    
V 28  22266.665559   -172.034021  17853.756700       .014419                    
P 29   3369.238209  23672.224965 -11525.488932    150.965781                    
V 29  -8975.576539 -11938.795258 -26913.885838       .026015                    
P 30  -2130.503684  15500.029987 -21871.264277    280.393517                    
V 30 -26810.346901    747.984243   3234.481131       .033435                    
P 31  13910.667916   5314.499587 -21799.331610     -7.369995                    
V 31 -14168.613117  24276.815214  -2922.416983       .031646                    
P 32  20369.555970  -8255.329293 -14316.052810    -90.672488                    
V 32  18595.179245   4247.089928  23827.740024      -.089747                    
EOF
